FLOCK 4G-14             
1 62667U 25009BL  26068.75869712  .00011310  00000+0  42676-3 0  9993
2 62667  97.4064 151.1836 0003006 318.3639  41.7371 15.27197201 63711
STARLINK-35467          
1 66343U 25253AA  26068.44083973  .00032410  00000+0  11817-2 0  9998
2 66343  43.0020 214.1513 0003308 304.5350  55.5189 15.27587843 20201
